{"type": "FeatureCollection", "features": [ {"type": "Feature", "properties": {"norad_id": 39778, "name": "IRIDIUM 33 DEB", "group": "iridium-33-debris", "lat": 23.65809913203581, "lon": -141.34974687272896, "alt_km": 714.9091451186723, "timestamp": "2025-12-19T14:48:36.633467+00:00", "meta": {"OBJECT_NAME": "IRIDIUM 33 DEB", "OBJECT_ID": "1997-051AAK", "EPOCH": "2025-12-18T10:01:19.260192", "MEAN_MOTION": 14.5430124, "ECCENTRICITY": 0.00073585, "INCLINATION": 86.3776, "RA_OF_ASC_NODE": 40.7612, "ARG_OF_PERICENTER": 24.7507, "MEAN_ANOMALY": 335.4052, "EPHEMERIS_TYPE": 0, "CLASSIFICATION_TYPE": "U", "NORAD_CAT_ID": 39778, "ELEMENT_SET_NO": 999, "REV_AT_EPOCH": 60775, "BSTAR": 0.00067163185, "MEAN_MOTION_DOT": 2.869e-05, "MEAN_MOTION_DDOT": 0}, "tle": {"line1": "1 39778U 97051AAK 25352.41758403  .00002869  00000+0  67163-3 0  9995", "line2": "2 39778  86.3776  40.7612 0007358  24.7507 335.4052 14.54301240607752"}}, "geometry": {"type": "Point", "coordinates": [-141.34974687272896, 23.65809913203581]}}, {"type": "Feature", "properties": {"norad_id": 39781, "name": "IRIDIUM 33 DEB", "group": "iridium-33-debris", "lat": 19.75939312661068, "lon": 73.83879088370986, "alt_km": 823.3907876650055, "timestamp": "2025-12-19T14:48:36.633478+00:00", "meta": {"OBJECT_NAME": "IRIDIUM 33 DEB", "OBJECT_ID": "1997-051AAN", "EPOCH": "2025-12-15T00:15:44.903232", "MEAN_MOTION": 14.2070789, "ECCENTRICITY": 0.01756389, "INCLINATION": 86.371, "RA_OF_ASC_NODE": 257.043, "ARG_OF_PERICENTER": 266.0338, "MEAN_ANOMALY": 111.7662, "EPHEMERIS_TYPE": 0, "CLASSIFICATION_TYPE": "U", "NORAD_CAT_ID": 39781, "ELEMENT_SET_NO": 999, "REV_AT_EPOCH": 8139, "BSTAR": 0.0031777078, "MEAN_MOTION_DOT": 8.021e-05, "MEAN_MOTION_DDOT": 0}, "tle": {"line1": "1 39781U 97051AAN 25349.01093638  .00008021  00000+0  31777-2 0  9990", "line2": "2 39781  86.3710 257.0430 0175638 266.0338 111.7662 14.20707890 81397"}}, "geometry": {"type": "Point", "coordinates": [73.83879088370986, 19.75939312661068]}}, {"type": "Feature", "properties": {"norad_id": 40996, "name": "IRIDIUM 33 DEB", "group": "iridium-33-debris", "lat": 43.751098150541345, "lon": 1.69875120823593, "alt_km": 565.7291601050138, "timestamp": "2025-12-19T14:48:36.633488+00:00", "meta": {"OBJECT_NAME": "IRIDIUM 33 DEB", "OBJECT_ID": "1997-051ABJ", "EPOCH": "2025-12-19T00:18:17.890848", "MEAN_MOTION": 14.96620971, "ECCENTRICITY": 0.00114718, "INCLINATION": 86.3508, "RA_OF_ASC_NODE": 358.4785, "ARG_OF_PERICENTER": 46.0605, "MEAN_ANOMALY": 343.7105, "EPHEMERIS_TYPE": 0, "CLASSIFICATION_TYPE": "U", "NORAD_CAT_ID": 40996, "ELEMENT_SET_NO": 999, "REV_AT_EPOCH": 62582, "BSTAR": 0.0021050571, "MEAN_MOTION_DOT": 0.00024091, "MEAN_MOTION_DDOT": 0}, "tle": {"line1": "1 40996U 97051ABJ 25353.01270707  .00024091  00000+0  21051-2 0  9998", "line2": "2 40996  86.3508 358.4785 0011471  46.0605 343.7105 14.96620971625826"}}, "geometry": {"type": "Point", "coordinates": [1.69875120823593, 43.751098150541345]}}, {"type": "Feature", "properties": {"norad_id": 40998, "name": "IRIDIUM 33 DEB", "group": "iridium-33-debris", "lat": -51.15418855919765, "lon": 46.21369466656345, "alt_km": 751.5821824680897, "timestamp": "2025-12-19T14:48:36.633499+00:00", "meta": {"OBJECT_NAME": "IRIDIUM 33 DEB", "OBJECT_ID": "1997-051ABL", "EPOCH": "2025-12-17T22:19:42.919968", "MEAN_MOTION": 14.45114717, "ECCENTRICITY": 0.00092833, "INCLINATION": 86.383, "RA_OF_ASC_NODE": 51.4388, "ARG_OF_PERICENTER": 70.6878, "MEAN_ANOMALY": 108.7, "EPHEMERIS_TYPE": 0, "CLASSIFICATION_TYPE": "U", "NORAD_CAT_ID": 40998, "ELEMENT_SET_NO": 999, "REV_AT_EPOCH": 6756, "BSTAR": 0.00036218128, "MEAN_MOTION_DOT": 1.286e-05, "MEAN_MOTION_DDOT": 0}, "tle": {"line1": "1 40998U 97051ABL 25351.93035787  .00001286  00000+0  36218-3 0  9999", "line2": "2 40998  86.3830  51.4388 0009283  70.6878 108.7000 14.45114717 67562"}}, "geometry": {"type": "Point", "coordinates": [46.21369466656345, -51.15418855919765]}}, {"type": "Feature", "properties": {"norad_id": 46435, "name": "IRIDIUM 33 DEB", "group": "iridium-33-debris", "lat": -43.833545376585874, "lon": 14.567836890172854, "alt_km": 659.9108917299145, "timestamp": "2025-12-19T14:48:36.633509+00:00", "meta": {"OBJECT_NAME": "IRIDIUM 33 DEB", "OBJECT_ID": "1997-051ABN", "EPOCH": "2025-12-13T20:22:29.882208", "MEAN_MOTION": 14.32399442, "ECCENTRICITY": 0.0208315, "INCLINATION": 86.2839, "RA_OF_ASC_NODE": 193.4722, "ARG_OF_PERICENTER": 272.7642, "MEAN_ANOMALY": 103.0816, "EPHEMERIS_TYPE": 0, "CLASSIFICATION_TYPE": "U", "NORAD_CAT_ID": 46435, "ELEMENT_SET_NO": 999, "REV_AT_EPOCH": 7932, "BSTAR": 0.009141333, "MEAN_MOTION_DOT": 0.00031559, "MEAN_MOTION_DDOT": 0}, "tle": {"line1": "1 46435U 97051ABN 25347.84895697  .00031559  00000+0  91413-2 0  9993", "line2": "2 46435  86.2839 193.4722 0208315 272.7642 103.0816 14.32399442 79328"}}, "geometry": {"type": "Point", "coordinates": [14.567836890172854, -43.833545376585874]}}, {"type": "Feature", "properties": {"norad_id": 46734, "name": "IRIDIUM 33 DEB", "group": "iridium-33-debris", "lat": -71.16160839412565, "lon": -11.198251185592502, "alt_km": 734.7067659083195, "timestamp": "2025-12-19T14:48:36.633520+00:00", "meta": {"OBJECT_NAME": "IRIDIUM 33 DEB", "OBJECT_ID": "1997-051ABR", "EPOCH": "2025-12-16T07:16:35.707584", "MEAN_MOTION": 14.41911222, "ECCENTRICITY": 0.00381217, "INCLINATION": 86.2633, "RA_OF_ASC_NODE": 1.2995, "ARG_OF_PERICENTER": 323.6514, "MEAN_ANOMALY": 53.8246, "EPHEMERIS_TYPE": 0, "CLASSIFICATION_TYPE": "U", "NORAD_CAT_ID": 46734, "ELEMENT_SET_NO": 999, "REV_AT_EPOCH": 63062, "BSTAR": 0.00075238, "MEAN_MOTION_DOT": 2.503e-05, "MEAN_MOTION_DDOT": 0}, "tle": {"line1": "1 46734U 97051ABR 25350.30319106  .00002503  00000+0  75238-3 0  9991", "line2": "2 46734  86.2633   1.2995 0038121 323.6514  53.8246 14.41911222630621"}}, "geometry": {"type": "Point", "coordinates": [-11.198251185592502, -71.16160839412565]}}, {"type": "Feature", "properties": {"norad_id": 46965, "name": "IRIDIUM 33 DEB", "group": "iridium-33-debris", "lat": 18.64572131577828, "lon": 156.40852537847732, "alt_km": 702.9636519151354, "timestamp": "2025-12-19T14:48:36.633530+00:00", "meta": {"OBJECT_NAME": "IRIDIUM 33 DEB", "OBJECT_ID": "1997-051ABX", "EPOCH": "2025-12-17T22:44:05.593344", "MEAN_MOTION": 14.6033543, "ECCENTRICITY": 0.00175877, "INCLINATION": 86.3353, "RA_OF_ASC_NODE": 338.388, "ARG_OF_PERICENTER": 314.7846, "MEAN_ANOMALY": 73.669, "EPHEMERIS_TYPE": 0, "CLASSIFICATION_TYPE": "U", "NORAD_CAT_ID": 46965, "ELEMENT_SET_NO": 999, "REV_AT_EPOCH": 62344, "BSTAR": 0.00066145351, "MEAN_MOTION_DOT": 3.224e-05, "MEAN_MOTION_DDOT": 0}, "tle": {"line1": "1 46965U 97051ABX 25351.94728696  .00003224  00000+0  66145-3 0  9994", "line2": "2 46965  86.3353 338.3880 0017587 314.7846  73.6690 14.60335430623443"}}, "geometry": {"type": "Point", "coordinates": [156.40852537847732, 18.64572131577828]}}, {"type": "Feature", "properties": {"norad_id": 46971, "name": "IRIDIUM 33 DEB", "group": "iridium-33-debris", "lat": 80.6163698669517, "lon": 127.08100021155268, "alt_km": 566.3224994175225, "timestamp": "2025-12-19T14:48:36.633540+00:00", "meta": {"OBJECT_NAME": "IRIDIUM 33 DEB", "OBJECT_ID": "1997-051ACD", "EPOCH": "2025-12-18T04:46:20.926848", "MEAN_MOTION": 14.98336604, "ECCENTRICITY": 0.00026432, "INCLINATION": 86.3383, "RA_OF_ASC_NODE": 330.5483, "ARG_OF_PERICENTER": 282.6501, "MEAN_ANOMALY": 90.914, "EPHEMERIS_TYPE": 0, "CLASSIFICATION_TYPE": "U", "NORAD_CAT_ID": 46971, "ELEMENT_SET_NO": 999, "REV_AT_EPOCH": 64312, "BSTAR": 0.0022892837, "MEAN_MOTION_DOT": 0.00027356, "MEAN_MOTION_DDOT": 0}, "tle": {"line1": "1 46971U 97051ACD 25352.19885332  .00027356  00000+0  22893-2 0  9993", "line2": "2 46971  86.3383 330.5483 0002643 282.6501  90.9140 14.98336604643128"}}, "geometry": {"type": "Point", "coordinates": [127.08100021155268, 80.6163698669517]}}, {"type": "Feature", "properties": {"norad_id": 46974, "name": "IRIDIUM 33 DEB", "group": "iridium-33-debris", "lat": -25.837429436378923, "lon": -75.93116756609665, "alt_km": 697.840934646496, "timestamp": "2025-12-19T14:48:36.633551+00:00", "meta": {"OBJECT_NAME": "IRIDIUM 33 DEB", "OBJECT_ID": "1997-051ACG", "EPOCH": "2025-12-14T14:09:41.074272", "MEAN_MOTION": 14.44439168, "ECCENTRICITY": 0.00956816, "INCLINATION": 86.2983, "RA_OF_ASC_NODE": 104.4675, "ARG_OF_PERICENTER": 181.0289, "MEAN_ANOMALY": 179.0732, "EPHEMERIS_TYPE": 0, "CLASSIFICATION_TYPE": "U", "NORAD_CAT_ID": 46974, "ELEMENT_SET_NO": 999, "REV_AT_EPOCH": 57535, "BSTAR": 0.0034715296, "MEAN_MOTION_DOT": 0.00012692, "MEAN_MOTION_DDOT": 0}, "tle": {"line1": "1 46974U 97051ACG 25348.59005873  .00012692  00000+0  34715-2 0  9992", "line2": "2 46974  86.2983 104.4675 0095681 181.0289 179.0732 14.44439168575351"}}, "geometry": {"type": "Point", "coordinates": [-75.93116756609665, -25.837429436378923]}}, {"type": "Feature", "properties": {"norad_id": 46979, "name": "IRIDIUM 33 DEB", "group": "iridium-33-debris", "lat": -73.72876372314671, "lon": -121.9531432977527, "alt_km": 594.3606821144094, "timestamp": "2025-12-19T14:48:36.633562+00:00", "meta": {"OBJECT_NAME": "IRIDIUM 33 DEB", "OBJECT_ID": "1997-051ACM", "EPOCH": "2025-12-17T21:22:35.876928", "MEAN_MOTION": 14.8988445, "ECCENTRICITY": 0.00279352, "INCLINATION": 86.3335, "RA_OF_ASC_NODE": 46.1582, "ARG_OF_PERICENTER": 204.5568, "MEAN_ANOMALY": 155.433, "EPHEMERIS_TYPE": 0, "CLASSIFICATION_TYPE": "U", "NORAD_CAT_ID": 46979, "ELEMENT_SET_NO": 999, "REV_AT_EPOCH": 35505, "BSTAR": 0.0030814972, "MEAN_MOTION_DOT": 0.00029954, "MEAN_MOTION_DDOT": 0}, "tle": {"line1": "1 46979U 97051ACM 25351.89069302  .00029954  00000+0  30815-2 0  9997", "line2": "2 46979  86.3335  46.1582 0027935 204.5568 155.4330 14.89884450355057"}}, "geometry": {"type": "Point", "coordinates": [-121.9531432977527, -73.72876372314671]}}]}